start=new Date('2021-12-18T00:00:00.000Z').valueOf();
sats=[{"LAUNCH_DATE":"2021-05-15","TIME_SYSTEM":"UTC","MEAN_MOTION":"15.06401669","COUNTRY_CODE":"US","TLE_LINE1":"1 48576U 21041Z   21351.88871488 -.00001128  00000-0 -56785-4 0  9991","EPOCH":"2021-12-17T21:19:44.965632","INCLINATION":"53.0553","APOAPSIS":"548.765","ELEMENT_SET_NO":"999","DECAY_DATE":null,"SITE":"AFETR","ECCENTRICITY":"0.00022470","REF_FRAME":"TEME","PERIOD":"95.592","BSTAR":"-0.00005678500000","EPHEMERIS_TYPE":"0","MEAN_MOTION_DDOT":"0.0000000000000","MEAN_MOTION_DOT":"-0.00001128","ARG_OF_PERICENTER":"32.9843","RCS_SIZE":"LARGE","OBJECT_ID":"2021-041Z","CLASSIFICATION_TYPE":"U","RA_OF_ASC_NODE":"192.4308","OBJECT_TYPE":"PAYLOAD","GP_ID":"191904366","OBJECT_NAME":"STARLINK-2228","SEMIMAJOR_AXIS":"6925.343","TLE_LINE2":"2 48576  53.0553 192.4308 0002247  32.9843 327.1286 15.06401669 33029","FILE":"3243045","CENTER_NAME":"EARTH","NORAD_CAT_ID":"48576","REV_AT_EPOCH":"3302","MEAN_ANOMALY":"327.1286","MEAN_ELEMENT_THEORY":"SGP4","PERIAPSIS":"545.652"},{"MEAN_MOTION_DDOT":"0.0000000000000","MEAN_MOTION_DOT":"-0.00000468","PERIOD":"95.592","EPHEMERIS_TYPE":"0","BSTAR":"-0.00001250500000","ECCENTRICITY":"0.00026580","REF_FRAME":"TEME","ELEMENT_SET_NO":"999","DECAY_DATE":null,"SITE":"AFETR","APOAPSIS":"549.062","COUNTRY_CODE":"US","INCLINATION":"53.0533","EPOCH":"2021-12-17T21:29:41.700192","TLE_LINE1":"1 48577U 21041AA  21351.89562153 -.00000468  00000-0 -12505-4 0  9997","MEAN_MOTION":"15.06397560","LAUNCH_DATE":"2021-05-15","TIME_SYSTEM":"UTC","MEAN_ELEMENT_THEORY":"SGP4","PERIAPSIS":"545.380","MEAN_ANOMALY":"284.6150","CENTER_NAME":"EARTH","REV_AT_EPOCH":"3266","NORAD_CAT_ID":"48577","OBJECT_NAME":"STARLINK-2231","TLE_LINE2":"2 48577  53.0533 217.4922 0002658  75.5133 284.6150 15.06397560 32669","FILE":"3243045","SEMIMAJOR_AXIS":"6925.356","OBJECT_TYPE":"PAYLOAD","GP_ID":"191904569","RA_OF_ASC_NODE":"217.4922","OBJECT_ID":"2021-041AA","ARG_OF_PERICENTER":"75.5133","RCS_SIZE":"LARGE","CLASSIFICATION_TYPE":"U"},{"BSTAR":"0.00001677000000","EPHEMERIS_TYPE":"0","PERIOD":"95.592","MEAN_MOTION_DDOT":"0.0000000000000","MEAN_MOTION_DOT":"-0.00000032","SITE":"AFETR","DECAY_DATE":null,"ELEMENT_SET_NO":"999","REF_FRAME":"TEME","ECCENTRICITY":"0.00026450","INCLINATION":"53.0557","EPOCH":"2021-12-17T21:01:47.890272","TLE_LINE1":"1 48578U 21041AB  21351.87624873 -.00000032  00000-0  16770-4 0  9998","COUNTRY_CODE":"US","APOAPSIS":"549.056","TIME_SYSTEM":"UTC","LAUNCH_DATE":"2021-05-15","MEAN_MOTION":"15.06396472","PERIAPSIS":"545.393","MEAN_ELEMENT_THEORY":"SGP4","REV_AT_EPOCH":"3266","NORAD_CAT_ID":"48578","CENTER_NAME":"EARTH","MEAN_ANOMALY":"288.1389","GP_ID":"191904772","OBJECT_TYPE":"PAYLOAD","TLE_LINE2":"2 48578  53.0557 217.5747 0002645  71.9888 288.1389 15.06396472 32669","FILE":"3243045","SEMIMAJOR_AXIS":"6925.359","OBJECT_NAME":"STARLINK-2232","CLASSIFICATION_TYPE":"U","OBJECT_ID":"2021-041AB","RCS_SIZE":"LARGE","ARG_OF_PERICENTER":"71.9888","RA_OF_ASC_NODE":"217.5747"},{"REF_FRAME":"TEME","ECCENTRICITY":"0.00025170","SITE":"AFETR","ELEMENT_SET_NO":"999","DECAY_DATE":null,"MEAN_MOTION_DDOT":"0.0000000000000","MEAN_MOTION_DOT":"-0.00000264","BSTAR":"0.00000118140000","EPHEMERIS_TYPE":"0","PERIOD":"95.592","MEAN_MOTION":"15.06400131","TIME_SYSTEM":"UTC","LAUNCH_DATE":"2021-05-15","APOAPSIS":"548.956","INCLINATION":"53.0556","TLE_LINE1":"1 48579U 21041AC  21351.88456526 -.00000264  00000-0  11814-5 0  9990","EPOCH":"2021-12-17T21:13:46.438464","COUNTRY_CODE":"US","MEAN_ANOMALY":"283.8616","REV_AT_EPOCH":"3266","NORAD_CAT_ID":"48579","CENTER_NAME":"EARTH","PERIAPSIS":"545.470","MEAN_ELEMENT_THEORY":"SGP4","RA_OF_ASC_NODE":"217.5465","CLASSIFICATION_TYPE":"U","OBJECT_ID":"2021-041AC","ARG_OF_PERICENTER":"76.2653","RCS_SIZE":"LARGE","TLE_LINE2":"2 48579  53.0556 217.5465 0002517  76.2653 283.8616 15.06400131 32665","FILE":"3243045","SEMIMAJOR_AXIS":"6925.348","OBJECT_NAME":"STARLINK-2233","GP_ID":"191903759","OBJECT_TYPE":"PAYLOAD"},{"MEAN_MOTION_DDOT":"0.0000000000000","MEAN_MOTION_DOT":"0.00011227","PERIOD":"95.593","EPHEMERIS_TYPE":"0","BSTAR":"0.00077181000000","ECCENTRICITY":"0.00035810","REF_FRAME":"TEME","DECAY_DATE":null,"ELEMENT_SET_NO":"999","SITE":"AFETR","APOAPSIS":"549.757","COUNTRY_CODE":"US","INCLINATION":"53.0536","EPOCH":"2021-12-17T22:00:00.999936","TLE_LINE1":"1 48580U 21041AD  21351.91667824  .00011227  00000-0  77181-3 0  9998","MEAN_MOTION":"15.06379199","LAUNCH_DATE":"2021-05-15","TIME_SYSTEM":"UTC","MEAN_ELEMENT_THEORY":"SGP4","PERIAPSIS":"544.797","MEAN_ANOMALY":"276.4691","CENTER_NAME":"EARTH","REV_AT_EPOCH":"3347","NORAD_CAT_ID":"48580","OBJECT_NAME":"STARLINK-2234","TLE_LINE2":"2 48580  53.0536 192.3987 0003581  80.5369 276.4691 15.06379199 33478","FILE":"3242952","SEMIMAJOR_AXIS":"6925.412","OBJECT_TYPE":"PAYLOAD","GP_ID":"191879672","RA_OF_ASC_NODE":"192.3987","OBJECT_ID":"2021-041AD","ARG_OF_PERICENTER":"80.5369","RCS_SIZE":"LARGE","CLASSIFICATION_TYPE":"U"},{"TIME_SYSTEM":"UTC","LAUNCH_DATE":"2021-05-15","MEAN_MOTION":"15.06384162","INCLINATION":"53.0612","TLE_LINE1":"1 48581U 21041AE  21351.91667824  .00027409  00000-0  18526-2 0  9995","EPOCH":"2021-12-17T22:00:00.999936","COUNTRY_CODE":"US","APOAPSIS":"548.371","SITE":"AFETR","ELEMENT_SET_NO":"999","DECAY_DATE":null,"REF_FRAME":"TEME","ECCENTRICITY":"0.00016010","EPHEMERIS_TYPE":"0","BSTAR":"0.00185260000000","PERIOD":"95.593","MEAN_MOTION_DDOT":"0.0000000000000","MEAN_MOTION_DOT":"0.00027409","CLASSIFICATION_TYPE":"U","OBJECT_ID":"2021-041AE","ARG_OF_PERICENTER":"90.7665","RCS_SIZE":"LARGE","RA_OF_ASC_NODE":"182.3409","GP_ID":"191904974","OBJECT_TYPE":"PAYLOAD","SEMIMAJOR_AXIS":"6925.397","TLE_LINE2":"2 48581  53.0612 182.3409 0001601  90.7665 121.1234 15.06384162  3590","FILE":"3243045","OBJECT_NAME":"STARLINK-2235","REV_AT_EPOCH":"359","NORAD_CAT_ID":"48581","CENTER_NAME":"EARTH","MEAN_ANOMALY":"121.1234","PERIAPSIS":"546.153","MEAN_ELEMENT_THEORY":"SGP4"},{"SITE":"AFETR","DECAY_DATE":null,"ELEMENT_SET_NO":"999","REF_FRAME":"TEME","ECCENTRICITY":"0.00024870","BSTAR":"0.00142410000000","EPHEMERIS_TYPE":"0","PERIOD":"95.593","MEAN_MOTION_DDOT":"0.0000000000000","MEAN_MOTION_DOT":"0.00020987","TIME_SYSTEM":"UTC","LAUNCH_DATE":"2021-05-15","MEAN_MOTION":"15.06387023","INCLINATION":"53.0513","EPOCH":"2021-12-17T22:00:00.999936","TLE_LINE1":"1 48582U 21041AF  21351.91667824  .00020987  00000-0  14241-2 0  9990","COUNTRY_CODE":"US","APOAPSIS":"548.976","REV_AT_EPOCH":"360","NORAD_CAT_ID":"48582","CENTER_NAME":"EARTH","MEAN_ANOMALY":"313.5854","PERIAPSIS":"545.531","MEAN_ELEMENT_THEORY":"SGP4","CLASSIFICATION_TYPE":"U","OBJECT_ID":"2021-041AF","RCS_SIZE":"LARGE","ARG_OF_PERICENTER":"78.3637","RA_OF_ASC_NODE":"182.3927","GP_ID":"191905176","OBJECT_TYPE":"PAYLOAD","TLE_LINE2":"2 48582  53.0513 182.3927 0002487  78.3637 313.5854 15.06387023  3606","FILE":"3243045","SEMIMAJOR_AXIS":"6925.388","OBJECT_NAME":"STARLINK-2236"},{"GP_ID":"191904165","OBJECT_TYPE":"PAYLOAD","FILE":"3243045","TLE_LINE2":"2 48583  53.0549 227.6375 0002569  68.5509 291.5753 15.06393561 32526","SEMIMAJOR_AXIS":"6925.368","OBJECT_NAME":"STARLINK-2237","CLASSIFICATION_TYPE":"U","ARG_OF_PERICENTER":"68.5509","RCS_SIZE":"LARGE","OBJECT_ID":"2021-041AG","RA_OF_ASC_NODE":"227.6375","PERIAPSIS":"545.454","MEAN_ELEMENT_THEORY":"SGP4","NORAD_CAT_ID":"48583","REV_AT_EPOCH":"3252","CENTER_NAME":"EARTH","MEAN_ANOMALY":"291.5753","EPOCH":"2021-12-17T20:45:54.830880","TLE_LINE1":"1 48583U 21041AG  21351.86521795  .00001691  00000-0  13241-3 0  9992","INCLINATION":"53.0549","COUNTRY_CODE":"US","APOAPSIS":"549.012","TIME_SYSTEM":"UTC","LAUNCH_DATE":"2021-05-15","MEAN_MOTION":"15.06393561","BSTAR":"0.00013241000000","EPHEMERIS_TYPE":"0","PERIOD":"95.593","MEAN_MOTION_DOT":"0.00001691","MEAN_MOTION_DDOT":"0.0000000000000","SITE":"AFETR","DECAY_DATE":null,"ELEMENT_SET_NO":"999","REF_FRAME":"TEME","ECCENTRICITY":"0.00025690"},{"REF_FRAME":"TEME","ECCENTRICITY":"0.00025060","SITE":"AFETR","ELEMENT_SET_NO":"999","DECAY_DATE":null,"MEAN_MOTION_DDOT":"0.0000000000000","MEAN_MOTION_DOT":"0.00002513","BSTAR":"0.00018753000000","EPHEMERIS_TYPE":"0","PERIOD":"95.592","MEAN_MOTION":"15.06405236","TIME_SYSTEM":"UTC","LAUNCH_DATE":"2021-05-15","APOAPSIS":"548.933","INCLINATION":"53.0549","EPOCH":"2021-12-17T20:08:44.802816","TLE_LINE1":"1 48584U 21041AH  21351.83940744  .00002513  00000-0  18753-3 0  9996","COUNTRY_CODE":"US","MEAN_ANOMALY":"288.2930","REV_AT_EPOCH":"3251","NORAD_CAT_ID":"48584","CENTER_NAME":"EARTH","PERIAPSIS":"545.462","MEAN_ELEMENT_THEORY":"SGP4","RA_OF_ASC_NODE":"227.7416","CLASSIFICATION_TYPE":"U","OBJECT_ID":"2021-041AH","ARG_OF_PERICENTER":"71.8331","RCS_SIZE":"LARGE","TLE_LINE2":"2 48584  53.0549 227.7416 0002506  71.8331 288.2930 15.06405236 32517","SEMIMAJOR_AXIS":"6925.333","FILE":"3243045","OBJECT_NAME":"STARLINK-2238","GP_ID":"191904367","OBJECT_TYPE":"PAYLOAD"},{"GP_ID":"191904570","OBJECT_TYPE":"PAYLOAD","TLE_LINE2":"2 48585  53.0549 227.3976 0002184  72.6860 287.4367 15.06398968 32522","SEMIMAJOR_AXIS":"6925.352","FILE":"3243045","OBJECT_NAME":"STARLINK-2240","CLASSIFICATION_TYPE":"U","RCS_SIZE":"LARGE","ARG_OF_PERICENTER":"72.6860","OBJECT_ID":"2021-041AJ","RA_OF_ASC_NODE":"227.3976","PERIAPSIS":"545.704","MEAN_ELEMENT_THEORY":"SGP4","NORAD_CAT_ID":"48585","REV_AT_EPOCH":"3252","CENTER_NAME":"EARTH","MEAN_ANOMALY":"287.4367","EPOCH":"2021-12-17T22:00:11.919168","TLE_LINE1":"1 48585U 21041AJ  21351.91680462  .00000821  00000-0  74031-4 0  9996","INCLINATION":"53.0549","COUNTRY_CODE":"US","APOAPSIS":"548.729","TIME_SYSTEM":"UTC","LAUNCH_DATE":"2021-05-15","MEAN_MOTION":"15.06398968","EPHEMERIS_TYPE":"0","BSTAR":"0.00007403100000","PERIOD":"95.592","MEAN_MOTION_DOT":"0.00000821","MEAN_MOTION_DDOT":"0.0000000000000","SITE":"AFETR","ELEMENT_SET_NO":"999","DECAY_DATE":null,"REF_FRAME":"TEME","ECCENTRICITY":"0.00021840"}];
